ONEWEB-0018             
1 45434U 20020L   26111.30052668  .00000495  00000+0  13611-2 0  9996
2 45434  87.8919  32.3753 0002249  78.3715 281.7665 13.11416783295179
ONEWEB-0083             
1 45435U 20020M   26111.52008104  .00000213  00000+0  56611-3 0  9993
2 45435  87.8927  32.3218 0001884  76.3196 283.8141 13.11419576295243
ONEWEB-0095             
1 45436U 20020N   26111.51090541 -.00000194  00000+0 -58225-3 0  9992
2 45436  87.8929  32.3317 0001101  80.0532 280.0720 13.11420063295249
ONEWEB-0092             
1 45437U 20020P   26111.33018113 -.00000163  00000+0 -49516-3 0  9997
2 45437  87.8927  32.3676 0001536  85.7773 274.3530 13.11413713295336
ONEWEB-0085             
1 45438U 20020Q   26111.51923836  .00000095  00000+0  23140-3 0  9992
2 45438  87.8919  32.3333 0001844  79.5709 280.5626 13.11418105295245
ONEWEB-0096             
1 45439U 20020R   26111.52093426  .00000282  00000+0  76014-3 0  9993
2 45439  87.8930  32.3233 0001936  81.0885 279.0462 13.11418669295238
ONEWEB-0037             
1 45440U 20020S   26111.49924503 -.00000424  00000+0 -12230-2 0  9999
2 45440  87.8940  32.3053 0001759  79.7643 280.3684 13.11907999295263
ONEWEB-0042             
1 45441U 20020T   26111.51061650 -.00000269  00000+0 -79550-3 0  9994
2 45441  87.8951  32.3227 0001940  80.9739 279.1608 13.11417391295232
ONEWEB-0098             
1 45442U 20020U   26111.20131269 -.00000293  00000+0 -86288-3 0  9998
2 45442  87.8920  32.3943 0001859  75.7518 284.3817 13.11416301295173
ONEWEB-0055             
1 45443U 20020V   26111.33697086 -.00000334  00000+0 -97749-3 0  9997
2 45443  87.8930  32.3670 0001863  76.1993 283.9342 13.11415540295160
ONEWEB-0093             
1 45444U 20020W   26111.46512872  .00000524  00000+0  14439-2 0  9994
2 45444  87.8930  32.3322 0002004  90.4137 269.7220 13.11416861295245
ONEWEB-0029             
1 45445U 20020X   26111.48108778 -.00000091  00000+0 -29373-3 0  9998
2 45445  87.8919  32.3389 0001951  80.8141 279.3207 13.11415165295220
ONEWEB-0068             
1 45446U 20020Y   26111.31226167 -.00000072  00000+0 -23757-3 0  9993
2 45446  87.8960  32.3627 0002058  87.3178 272.8185 13.11418138295140
ONEWEB-0046             
1 45447U 20020Z   26111.30391867  .00000658  00000+0  18220-2 0  9999
2 45447  87.8929  32.3744 0001850  86.7702 273.3637 13.11416914295150
ONEWEB-0063             
1 45448U 20020AA  26111.33272894 -.00000243  00000+0 -72171-3 0  9999
2 45448  87.8927  32.3662 0001638  83.2360 276.8954 13.11415180295248
ONEWEB-0019             
1 45449U 20020AB  26111.52418964  .00000376  00000+0  10258-2 0  9993
2 45449  87.8924  32.3184 0001898  73.6700 286.4637 13.11418410295114
