[{"OBJECT_NAME":"ONEWEB-0018","OBJECT_ID":"2020-020L","EPOCH":"2026-04-21T07:12:45.505152","MEAN_MOTION":13.11416783,"ECCENTRICITY":0.0002249,"INCLINATION":87.8919,"RA_OF_ASC_NODE":32.3753,"ARG_OF_PERICENTER":78.3715,"MEAN_ANOMALY":281.7665,"EPHEMERIS_TYPE":0,"CLASSIFICATION_TYPE":"U","NORAD_CAT_ID":45434,"ELEMENT_SET_NO":999,"REV_AT_EPOCH":29517,"BSTAR":0.0013611,"MEAN_MOTION_DOT":4.95e-06,"MEAN_MOTION_DDOT":0.0},{"OBJECT_NAME":"ONEWEB-0083","OBJECT_ID":"2020-020M","EPOCH":"2026-04-21T12:28:55.001856","MEAN_MOTION":13.11419576,"ECCENTRICITY":0.0001884,"INCLINATION":87.8927,"RA_OF_ASC_NODE":32.3218,"ARG_OF_PERICENTER":76.3196,"MEAN_ANOMALY":283.8141,"EPHEMERIS_TYPE":0,"CLASSIFICATION_TYPE":"U","NORAD_CAT_ID":45435,"ELEMENT_SET_NO":999,"REV_AT_EPOCH":29524,"BSTAR":0.00056611,"MEAN_MOTION_DOT":2.13e-06,"MEAN_MOTION_DDOT":0.0},{"OBJECT_NAME":"ONEWEB-0095","OBJECT_ID":"2020-020N","EPOCH":"2026-04-21T12:15:42.227424","MEAN_MOTION":13.11420063,"ECCENTRICITY":0.0001101,"INCLINATION":87.8929,"RA_OF_ASC_NODE":32.3317,"ARG_OF_PERICENTER":80.0532,"MEAN_ANOMALY":280.072,"EPHEMERIS_TYPE":0,"CLASSIFICATION_TYPE":"U","NORAD_CAT_ID":45436,"ELEMENT_SET_NO":999,"REV_AT_EPOCH":29524,"BSTAR":-0.0005822500000000001,"MEAN_MOTION_DOT":-1.94e-06,"MEAN_MOTION_DDOT":0.0},{"OBJECT_NAME":"ONEWEB-0092","OBJECT_ID":"2020-020P","EPOCH":"2026-04-21T07:55:27.649632","MEAN_MOTION":13.11413713,"ECCENTRICITY":0.0001536,"INCLINATION":87.8927,"RA_OF_ASC_NODE":32.3676,"ARG_OF_PERICENTER":85.7773,"MEAN_ANOMALY":274.353,"EPHEMERIS_TYPE":0,"CLASSIFICATION_TYPE":"U","NORAD_CAT_ID":45437,"ELEMENT_SET_NO":999,"REV_AT_EPOCH":29533,"BSTAR":-0.00049516,"MEAN_MOTION_DOT":-1.63e-06,"MEAN_MOTION_DDOT":0.0},{"OBJECT_NAME":"ONEWEB-0085","OBJECT_ID":"2020-020Q","EPOCH":"2026-04-21T12:27:42.194304","MEAN_MOTION":13.11418105,"ECCENTRICITY":0.0001844,"INCLINATION":87.8919,"RA_OF_ASC_NODE":32.3333,"ARG_OF_PERICENTER":79.5709,"MEAN_ANOMALY":280.5626,"EPHEMERIS_TYPE":0,"CLASSIFICATION_TYPE":"U","NORAD_CAT_ID":45438,"ELEMENT_SET_NO":999,"REV_AT_EPOCH":29524,"BSTAR":0.0002314,"MEAN_MOTION_DOT":9.5e-07,"MEAN_MOTION_DDOT":0.0},{"OBJECT_NAME":"ONEWEB-0096","OBJECT_ID":"2020-020R","EPOCH":"2026-04-21T12:30:08.720064","MEAN_MOTION":13.11418669,"ECCENTRICITY":0.0001936,"INCLINATION":87.893,"RA_OF_ASC_NODE":32.3233,"ARG_OF_PERICENTER":81.0885,"MEAN_ANOMALY":279.0462,"EPHEMERIS_TYPE":0,"CLASSIFICATION_TYPE":"U","NORAD_CAT_ID":45439,"ELEMENT_SET_NO":999,"REV_AT_EPOCH":29523,"BSTAR":0.0007601400000000001,"MEAN_MOTION_DOT":2.82e-06,"MEAN_MOTION_DDOT":0.0},{"OBJECT_NAME":"ONEWEB-0037","OBJECT_ID":"2020-020S","EPOCH":"2026-04-21T11:58:54.770592","MEAN_MOTION":13.11907999,"ECCENTRICITY":0.0001759,"INCLINATION":87.894,"RA_OF_ASC_NODE":32.3053,"ARG_OF_PERICENTER":79.7643,"MEAN_ANOMALY":280.3684,"EPHEMERIS_TYPE":0,"CLASSIFICATION_TYPE":"U","NORAD_CAT_ID":45440,"ELEMENT_SET_NO":999,"REV_AT_EPOCH":29526,"BSTAR":-0.0012230000000000001,"MEAN_MOTION_DOT":-4.24e-06,"MEAN_MOTION_DDOT":0.0},{"OBJECT_NAME":"ONEWEB-0042","OBJECT_ID":"2020-020T","EPOCH":"2026-04-21T12:15:17.265600","MEAN_MOTION":13.11417391,"ECCENTRICITY":0.000194,"INCLINATION":87.8951,"RA_OF_ASC_NODE":32.3227,"ARG_OF_PERICENTER":80.9739,"MEAN_ANOMALY":279.1608,"EPHEMERIS_TYPE":0,"CLASSIFICATION_TYPE":"U","NORAD_CAT_ID":45441,"ELEMENT_SET_NO":999,"REV_AT_EPOCH":29523,"BSTAR":-0.0007955,"MEAN_MOTION_DOT":-2.69e-06,"MEAN_MOTION_DDOT":0.0},{"OBJECT_NAME":"ONEWEB-0098","OBJECT_ID":"2020-020U","EPOCH":"2026-04-21T04:49:53.416416","MEAN_MOTION":13.11416301,"ECCENTRICITY":0.0001859,"INCLINATION":87.892,"RA_OF_ASC_NODE":32.3943,"ARG_OF_PERICENTER":75.7518,"MEAN_ANOMALY":284.3817,"EPHEMERIS_TYPE":0,"CLASSIFICATION_TYPE":"U","NORAD_CAT_ID":45442,"ELEMENT_SET_NO":999,"REV_AT_EPOCH":29517,"BSTAR":-0.00086288,"MEAN_MOTION_DOT":-2.93e-06,"MEAN_MOTION_DDOT":0.0},{"OBJECT_NAME":"ONEWEB-0055","OBJECT_ID":"2020-020V","EPOCH":"2026-04-21T08:05:14.282304","MEAN_MOTION":13.1141554,"ECCENTRICITY":0.0001863,"INCLINATION":87.893,"RA_OF_ASC_NODE":32.367,"ARG_OF_PERICENTER":76.1993,"MEAN_ANOMALY":283.9342,"EPHEMERIS_TYPE":0,"CLASSIFICATION_TYPE":"U","NORAD_CAT_ID":45443,"ELEMENT_SET_NO":999,"REV_AT_EPOCH":29516,"BSTAR":-0.00097749,"MEAN_MOTION_DOT":-3.34e-06,"MEAN_MOTION_DDOT":0.0},{"OBJECT_NAME":"ONEWEB-0093","OBJECT_ID":"2020-020W","EPOCH":"2026-04-21T11:09:47.121408","MEAN_MOTION":13.11416861,"ECCENTRICITY":0.0002004,"INCLINATION":87.893,"RA_OF_ASC_NODE":32.3322,"ARG_OF_PERICENTER":90.4137,"MEAN_ANOMALY":269.722,"EPHEMERIS_TYPE":0,"CLASSIFICATION_TYPE":"U","NORAD_CAT_ID":45444,"ELEMENT_SET_NO":999,"REV_AT_EPOCH":29524,"BSTAR":0.0014439,"MEAN_MOTION_DOT":5.24e-06,"MEAN_MOTION_DDOT":0.0},{"OBJECT_NAME":"ONEWEB-0029","OBJECT_ID":"2020-020X","EPOCH":"2026-04-21T11:32:45.984192","MEAN_MOTION":13.11415165,"ECCENTRICITY":0.0001951,"INCLINATION":87.8919,"RA_OF_ASC_NODE":32.3389,"ARG_OF_PERICENTER":80.8141,"MEAN_ANOMALY":279.3207,"EPHEMERIS_TYPE":0,"CLASSIFICATION_TYPE":"U","NORAD_CAT_ID":45445,"ELEMENT_SET_NO":999,"REV_AT_EPOCH":29522,"BSTAR":-0.00029373,"MEAN_MOTION_DOT":-9.1e-07,"MEAN_MOTION_DDOT":0.0},{"OBJECT_NAME":"ONEWEB-0068","OBJECT_ID":"2020-020Y","EPOCH":"2026-04-21T07:29:39.408288","MEAN_MOTION":13.11418138,"ECCENTRICITY":0.0002058,"INCLINATION":87.896,"RA_OF_ASC_NODE":32.3627,"ARG_OF_PERICENTER":87.3178,"MEAN_ANOMALY":272.8185,"EPHEMERIS_TYPE":0,"CLASSIFICATION_TYPE":"U","NORAD_CAT_ID":45446,"ELEMENT_SET_NO":999,"REV_AT_EPOCH":29514,"BSTAR":-0.00023757000000000002,"MEAN_MOTION_DOT":-7.2e-07,"MEAN_MOTION_DDOT":0.0},{"OBJECT_NAME":"ONEWEB-0046","OBJECT_ID":"2020-020Z","EPOCH":"2026-04-21T07:17:38.573088","MEAN_MOTION":13.11416914,"ECCENTRICITY":0.000185,"INCLINATION":87.8929,"RA_OF_ASC_NODE":32.3744,"ARG_OF_PERICENTER":86.7702,"MEAN_ANOMALY":273.3637,"EPHEMERIS_TYPE":0,"CLASSIFICATION_TYPE":"U","NORAD_CAT_ID":45447,"ELEMENT_SET_NO":999,"REV_AT_EPOCH":29515,"BSTAR":0.001822,"MEAN_MOTION_DOT":6.58e-06,"MEAN_MOTION_DDOT":0.0},{"OBJECT_NAME":"ONEWEB-0063","OBJECT_ID":"2020-020AA","EPOCH":"2026-04-21T07:59:07.780416","MEAN_MOTION":13.1141518,"ECCENTRICITY":0.0001638,"INCLINATION":87.8927,"RA_OF_ASC_NODE":32.3662,"ARG_OF_PERICENTER":83.236,"MEAN_ANOMALY":276.8954,"EPHEMERIS_TYPE":0,"CLASSIFICATION_TYPE":"U","NORAD_CAT_ID":45448,"ELEMENT_SET_NO":999,"REV_AT_EPOCH":29524,"BSTAR":-0.00072171,"MEAN_MOTION_DOT":-2.43e-06,"MEAN_MOTION_DDOT":0.0},{"OBJECT_NAME":"ONEWEB-0019","OBJECT_ID":"2020-020AB","EPOCH":"2026-04-21T12:34:49.984896","MEAN_MOTION":13.1141841,"ECCENTRICITY":0.0001898,"INCLINATION":87.8924,"RA_OF_ASC_NODE":32.3184,"ARG_OF_PERICENTER":73.67,"MEAN_ANOMALY":286.4637,"EPHEMERIS_TYPE":0,"CLASSIFICATION_TYPE":"U","NORAD_CAT_ID":45449,"ELEMENT_SET_NO":999,"REV_AT_EPOCH":29511,"BSTAR":0.0010258,"MEAN_MOTION_DOT":3.76e-06,"MEAN_MOTION_DDOT":0.0}]